satname,norad_id,inclination_deg,eccentricity,mean_motion_rev_per_day,perigee_km,apogee_km,l1,l2
STARLINK-1451,45668,53.0543,0.0003997,15.07551003,540.9194914467289,546.4527968681678,1 45668U 20035M   26024.36688744  .00012457  00000+0  82760-3 0  9993,2 45668  53.0543 265.7942 0003997 106.2466 253.8964 15.07551003312054
STARLINK-1452,45669,53.0354,0.000472,15.36854627,452.19184596411196,458.642721207817,1 45669U 20035N   26023.87007344  .00037975  00000+0  10439-2 0  9995,2 45669  53.0354 234.0338 0004720 155.1946 204.9284 15.36854627312450
STARLINK-1453,45670,53.0526,0.0007321,15.42255344,434.46349946019564,444.4458171662982,1 45670U 20035P   26024.27997104  .00031811  00000+0  73448-3 0  9997,2 45670  53.0526 225.7021 0007321 159.2635 200.8668 15.42255344312492
STARLINK-1454,45671,53.0542,0.0001238,15.33802199,463.63349176341944,465.32772388311514,1 45671U 20035Q   26024.58335647  .01663193  00000+0  45437-1 0  9990,2 45671  53.0542 263.2382 0001238  74.0610 194.0839 15.33802199  5833
STARLINK-1456,45673,53.0528,0.0007461,15.4002206,440.9526271274299,451.1356702374942,1 45673U 20035S   26023.35366190  .00083984  00000+0  20574-2 0  9992,2 45673  53.0528 262.4185 0007461 124.0268 236.1445 15.40022060312011
STARLINK-1457,45674,53.0503,0.0001184,15.63580174,376.5254012350815,378.12509469539964,1 45674U 20035T   26023.90595409  .00078004  00000+0  82255-3 0  9993,2 45674  53.0503 244.4665 0001184  87.2468 272.8681 15.63580174312284
STARLINK-1458,45675,53.0565,0.0001703,15.24716936,490.46562972735865,492.8054742585673,1 45675U 20035U   26024.58335647  .01073986  00000+0  39694-1 0  9997,2 45675  53.0565 263.6369 0001703  92.4152 269.0976 15.24716936  5639
STARLINK-1460,45676,53.0534,0.0001091,15.06405414,546.4394111403662,547.9505185750977,1 45676U 20035V   26023.65173189  .00008002  00000+0  55540-3 0  9992,2 45676  53.0534 268.8009 0001091  92.0233 268.0881 15.06405414311900
STARLINK-1392,45677,53.0531,0.0001533,15.06416301,546.0999498964702,548.2232464466706,1 45677U 20035W   26024.39259765  .00005687  00000+0  40023-3 0  9996,2 45677  53.0531 265.4763 0001533  89.4244 270.6921 15.06416301312059
STARLINK-1394,45679,53.0525,0.0006042,15.40663235,440.0286531282054,448.27270555992527,1 45679U 20035Y   26023.90922356  .00039943  00000+0  96895-3 0  9997,2 45679  53.0525 249.7400 0006042 130.9380 229.2147 15.40663235312238
STARLINK-1402,45685,53.051,0.0012974,15.3707322,445.904371740281,463.63439722673866,1 45685U 20035AE  26024.30147990  .00039047  00000+0  10630-2 0  9999,2 45685  53.0510 233.6080 0012974 110.6912 249.5482 15.37073220312504
STARLINK-1404,45686,53.1115,0.0001955,15.19553888,505.841803045284,508.5339650749511,1 45686U 20035AF  26024.58335647  .01775492  00000+0  75181-1 0  9991,2 45686  53.1115 254.2946 0001955  87.3828 283.1154 15.19553888  5782
STARLINK-1413,45689,53.1153,0.0001191,15.20320512,504.0532990857482,505.6928320833704,1 45689U 20035AJ  26024.58335647  .01695953  00000+0  70531-1 0  9991,2 45689  53.1153 254.2494 0001191  90.7563 203.1609 15.20320512  5832
STARLINK-1417,45693,53.0511,0.0007566,15.09802284,531.5717899964293,542.0354781639207,1 45693U 20035AN  26024.35272888  .00015336  00000+0  95367-3 0  9994,2 45693  53.0511 254.8383 0007566 108.2393 251.9422 15.09802284312197
STARLINK-1420,45695,53.0553,0.0001485,15.32709113,466.7169206437393,468.75014419186755,1 45695U 20035AQ  26024.58335647  .01579113  00000+0  44872-1 0  9996,2 45695  53.0553 233.3225 0001485 106.0817 302.7043 15.32709113  5830
STARLINK-1422,45696,53.1117,0.0001485,15.19636418,505.91615780683696,507.9610252575221,1 45696U 20035AR  26024.58335647  .00818008  00000+0  35378-1 0  9996,2 45696  53.1117 254.0489 0001485 103.4205 262.0378 15.19636418  5833
STARLINK-1351,45697,53.0552,0.0001839,15.32716655,466.4521234039976,468.97002632593285,1 45697U 20035AS  26024.58335647  .00176982  00000+0  54060-2 0  9995,2 45697  53.0552 232.3303 0001839 118.1912 162.7219 15.32716655  5849
STARLINK-1398,45699,53.0421,0.0003115,15.73249205,347.52219601536126,351.7135873128682,1 45699U 20035AU  26024.58335647  .00062677  00000+0  44657-3 0  9994,2 45699  53.0421 161.5451 0003115 231.8781 182.2281 15.73249205  6001
STARLINK-1400,45700,53.0542,0.0001026,15.33229697,465.48161237039494,466.8860670066988,1 45700U 20035AV  26024.58335647  .01495018  00000+0  42007-1 0  9992,2 45700  53.0542 233.2759 0001026  84.3413 205.2347 15.33229697  5779
STARLINK-1403,45701,53.0548,0.0001084,15.06434615,546.3547736964656,547.8561662639577,1 45701U 20035AW  26023.95669391  .00007604  00000+0  52833-3 0  9998,2 45701  53.0548 237.4330 0001084  90.8465 269.2648 15.06434615312403
STARLINK-1407,45703,53.0373,0.0007181,15.51721726,406.82315946559993,416.574721843569,1 45703U 20035AY  26024.11718032  .00155543  00000+0  25219-2 0  9999,2 45703  53.0373 171.5843 0007181 310.0609  49.9769 15.51721726313353
STARLINK-1411,45706,53.0462,9.33e-05,15.54193745,403.8645064846223,405.1301460499044,1 45706U 20035BB  26024.49368315  .00093642  00000+0  14036-2 0  9994,2 45706  53.0462 196.0716 0000933 243.3877 116.7038 15.54193745313033
STARLINK-1423,45710,53.0551,7.36e-05,15.36166023,456.95617710260103,457.96237687457324,1 45710U 20035BF  26024.58335647  .01658585  00000+0  42052-1 0  9993,2 45710  53.0551 232.9486 0000736 129.1100  30.4117 15.36166023  5736
STARLINK-1433,45711,53.0651,0.0001396,15.37940747,451.24607469366947,453.15310466950814,1 45711U 20035BG  26024.58335647  .01121715  00000+0  27040-1 0  9994,2 45711  53.0651 232.6998 0001396 100.9311 286.0252 15.37940747  5785
STARLINK-1434,45712,53.0545,0.0004451,15.21471891,498.33805138925345,504.46221534537744,1 45712U 20035BH  26023.85159990  .00052269  00000+0  22932-2 0  9991,2 45712  53.0545 226.9483 0004451  91.6004 268.5502 15.21471891312554
STARLINK-1465,45731,53.056,0.0001416,15.28460843,479.4416313208758,481.3839726247952,1 45731U 20038B   26024.58335647  .01786961  00000+0  58089-1 0  9996,2 45731  53.0560  73.2239 0001416  58.2970 240.6932 15.28460843  5833
STARLINK-1471,45735,53.0505,0.0003113,15.45213407,428.63148321706285,432.87069694194633,1 45735U 20038F   26024.20670529  .00035845  00000+0  74814-3 0  9993,2 45735  53.0505 354.6180 0003113  85.8623 274.2739 15.45213407310641
STARLINK-1474,45738,53.0273,0.0005494,15.90679771,296.7103124302266,304.04866634876726,1 45738U 20038J   26024.58335647  .00389168  67934-4  12348-2 0  9993,2 45738  53.0273 289.1991 0005494 155.3910 134.8673 15.90679771  5890
STARLINK-1480,45741,53.0534,0.0007009,15.40125986,440.9542996995151,450.52000648732064,1 45741U 20038M   26024.40593650  .00114895  00000+0  27904-2 0  9991,2 45741  53.0534  67.9888 0007009  24.8783 335.2558 15.40125986309630
STARLINK-1500,45744,53.0388,0.0003929,15.32184934,466.60445752470696,471.98516944374387,1 45744U 20038Q   26024.35962233  .00034577  00000+0  11038-2 0  9994,2 45744  53.0388  40.2866 0003929  83.9431 276.2016 15.32184934310019
STARLINK-1504,45746,53.0261,0.00044,15.5000263,413.72864662712254,419.70811936415794,1 45746U 20038S   26024.17742811  .00043061  00000+0  75902-3 0  9993,2 45746  53.0261 356.4199 0004400  66.9095 293.2376 15.50002630310609
STARLINK-1506,45747,53.0785,0.0004533,15.24726625,488.49239423583276,494.7205036466421,1 45747U 20038T   26024.37110755  .00015768  00000+0  64091-3 0  9992,2 45747  53.0785  47.1402 0004533  92.4826 267.6690 15.24726625309920
STARLINK-1464,45751,53.0539,0.0001955,15.29535351,475.8600916843443,478.54052857260467,1 45751U 20038X   26024.58335647  .01645341  00000+0  51366-1 0  9995,2 45751  53.0539  53.3731 0001955  61.0478 249.5387 15.29535351  5830
STARLINK-1477,45754,53.0522,0.0001357,15.1140173,530.9865716803888,532.8619623082504,1 45754U 20038AA  26024.37430711  .00026485  00000+0  15620-2 0  9998,2 45754  53.0522  53.9517 0001357 251.9108 108.1735 15.11401730309826
STARLINK-1478,45755,53.0543,0.0002437,15.45323754,428.7677041430734,432.0861982128763,1 45755U 20038AB  26024.47992142  .00132323  00000+0  26940-2 0  9997,2 45755  53.0543  50.1748 0002437  65.6975 294.4285 15.45323754309877
STARLINK-1484,45756,53.0071,0.0004491,15.80092621,327.1657682705427,333.19117722816554,1 45756U 20038AC  26024.58335647  .00274850  00000+0  14007-2 0  9994,2 45756  53.0071 281.2105 0004491 139.5026 316.0535 15.80092621  5932
STARLINK-1493,45759,53.0554,0.0001314,15.23526973,494.3090558260692,496.11537199948543,1 45759U 20038AF  26024.58335647  .01072214  00000+0  41055-1 0  9990,2 45759  53.0554  53.7739 0001314  77.8202 268.5103 15.23526973  5781
STARLINK-1494,45760,53.0526,0.000171,15.65730374,369.9849048447013,372.29315724731805,1 45760U 20038AG  26024.24188212  .00091261  00000+0  88145-3 0  9994,2 45760  53.0526  11.2281 0001710  94.5201 265.6009 15.65730374310418
STARLINK-1502,45764,53.0541,0.0001379,15.1845966,509.54533309878934,511.44521788036855,1 45764U 20038AL  26024.58335647  .01027410  00000+0  45743-1 0  9992,2 45764  53.0541  54.0750 0001379  51.2906 321.5515 15.18459660  5787
STARLINK-1470,45772,53.0469,6.74e-05,15.24111934,492.9902746851676,493.91656507376865,1 45772U 20038AU  26024.46507388  .00031571  00000+0  12905-2 0  9998,2 45772  53.0469  18.9498 0000674 138.8042 221.3006 15.24111934310320
STARLINK-1482,45773,53.055,0.0001044,15.06448403,546.3402227843835,547.7862045890006,1 45773U 20038AV  26024.33267911  .00013680  00000+0  93425-3 0  9998,2 45773  53.0550  35.7438 0001044  90.6239 269.4870 15.06448403310076
STARLINK-1496,45780,53.055,0.000597,15.39665103,443.0241906435749,451.1735222561747,1 45780U 20038BC  26024.30588277  .00069605  00000+0  17307-2 0  9996,2 45780  53.0550  28.9053 0005970  46.1804 313.9693 15.39665103310158
STARLINK-1497,45781,53.0287,0.000799,15.92594532,289.6935488942472,300.35726241848533,1 45781U 20038BD  26024.58335647  .00538226  12549-3  15415-2 0  9991,2 45781  53.0287 301.5084 0007990 125.0910 255.0660 15.92594532  5921
